     2.100          NAVIGATION                              RINEX VERSION / TYPE
fic2rin                                 12/25/2010 00:20:32 PGM / RUN BY / DATE
                                                            END OF HEADER
 7 10 12 24  4  0  0.0  .779982656240D-06  .454747350886D-12  .000000000000D+00
     .400000000000D+02  .452500000000D+02  .461376361035D-08  .200821392784D+01
     .244006514549D-05  .416904385202D-02  .174529850483D-05  .515368134308D+04
     .446400000000D+06  .000000000000D+00 -.124615064052D+01  .175088644028D-06
     .973224648427D+00  .353625000000D+03 -.310021308091D+01 -.843642283945D-08
     .161792453591D-09  .100000000000D+01  .161500000000D+04  .000000000000D+00
     .240000000000D+01  .000000000000D+00 -.102445483208D-07  .400000000000D+02
     .439206000000D+06  .400000000000D+01
 8 10 12 24  4  0  0.0  .707479193807D-05  .000000000000D+00  .000000000000D+00
     .110000000000D+03  .356562500000D+02  .413981529707D-08  .147155268698D+01
     .204890966415D-05  .114628942683D-01  .160187482834D-05  .515363500595D+04
     .446400000000D+06  .949949026108D-07 -.117382491134D+01  .145286321640D-06
     .994790236275D+00  .365531250000D+03 -.309654383514D+01 -.822998566908D-08
    -.407159816984D-10  .100000000000D+01  .161500000000D+04  .000000000000D+00
     .240000000000D+01  .000000000000D+00 -.419095158577D-08  .110000000000D+03
     .439206000000D+06  .400000000000D+01
 9 10 12 24  4  0  0.0  .507826916873D-04  .250111042988D-11  .000000000000D+00
     .350000000000D+02  .571250000000D+02  .448982987658D-08  .135562740547D+01
     .261701643467D-05  .169668816961D-01  .167079269886D-05  .515368657684D+04
     .446400000000D+06 -.152736902237D-06 -.127577681190D+01 -.435858964920D-06
     .982209307566D+00  .358468750000D+03  .155503305095D+01 -.844142304772D-08
     .257510726355D-09  .100000000000D+01  .161500000000D+04  .000000000000D+00
     .240000000000D+01  .000000000000D+00 -.558793544769D-08  .350000000000D+02
     .439206000000D+06  .400000000000D+01
10 10 12 24  4  0  0.0 -.612121075392D-04 -.102318153949D-11  .000000000000D+00
     .270000000000D+02 -.169062500000D+02  .482341520032D-08 -.627343998184D+00
    -.778585672379D-06  .985485641286D-02  .853277742863D-05  .515355113792D+04
     .446400000000D+06  .856816768646D-07  .295834682108D+01  .188127160072D-06
     .951109726063D+00  .208906250000D+03  .679686740390D+00 -.823462871962D-08
    -.559309011751D-09  .100000000000D+01  .161500000000D+04  .000000000000D+00
     .240000000000D+01  .000000000000D+00 -.279396772385D-08  .270000000000D+02
     .439206000000D+06  .400000000000D+01
11 10 12 24  4  0  0.0 -.113709364086D-03 -.295585778076D-11  .000000000000D+00
     .780000000000D+02  .373437500000D+02  .644991152185D-08  .202485477021D+01
     .180304050446D-05  .115581862628D-01  .653043389320D-05  .515348427391D+04
     .446400000000D+06 -.214204192162D-06  .164328799039D+01 -.234693288803D-06
     .887590997785D+00  .215187500000D+03  .896946151167D+00 -.895215860762D-08
     .449661587353D-09  .100000000000D+01  .161500000000D+04  .000000000000D+00
     .240000000000D+01  .000000000000D+00 -.116415321827D-07  .780000000000D+02
     .439206000000D+06  .400000000000D+01
13 10 12 24  4  0  0.0  .288151670247D-03 -.113686837722D-11  .000000000000D+00
     .890000000000D+02  .108468750000D+03  .365979530231D-08 -.176248282651D+01
     .580959022045D-05  .433542917017D-02  .973977148533D-05  .515367290688D+04
     .446400000000D+06  .186264514923D-08 -.222398130847D+01  .949949026108D-07
     .991283365628D+00  .211906250000D+03  .179557029570D+01 -.761317426212D-08
     .156435087578D-09  .100000000000D+01  .161500000000D+04  .000000000000D+00
     .240000000000D+01  .000000000000D+00 -.107102096081D-07  .890000000000D+02
     .439206000000D+06  .400000000000D+01
14 10 12 24  4  0  0.0  .118112657219D-03  .306954461848D-11  .000000000000D+00
     .770000000000D+02  .119062500000D+03  .374658463172D-08 -.180939723417D+01
     .621005892754D-05  .570507452358D-02  .109486281872D-04  .515361935806D+04
     .446400000000D+06  .949949026108D-07 -.224716053299D+01 -.558793544769D-08
     .984428889300D+00  .179250000000D+03 -.207973725231D+01 -.760495963424D-08
     .140720147273D-09  .100000000000D+01  .161500000000D+04  .000000000000D+00
     .240000000000D+01  .000000000000D+00 -.884756445885D-08  .770000000000D+02
     .439206000000D+06  .400000000000D+01
15 10 12 24  4  0  0.0 -.168696511537D-03  .409272615798D-11  .000000000000D+00
     .550000000000D+02  .121593750000D+03  .445304262996D-08 -.211196190412D+01
     .614486634731D-05  .320630485658D-02  .112634152174D-04  .515388134003D+04
     .446400000000D+06 -.521540641785D-07 -.231795730944D+01 -.502914190292D-07
     .951822323700D+00  .161406250000D+03 -.157711871641D+00 -.797426073140D-08
     .707172313708D-10  .100000000000D+01  .161500000000D+04  .000000000000D+00
     .240000000000D+01  .000000000000D+00 -.977888703346D-08  .550000000000D+02
     .439206000000D+06  .400000000000D+01
16 10 12 24  4  0  0.0 -.136914197356D-03 -.306954461848D-11  .000000000000D+00
     .860000000000D+02 -.133343750000D+03  .423089051929D-08 -.258072973135D+00
    -.702403485775D-05  .598067231476D-02  .614859163761D-05  .515372119904D+04
     .446400000000D+06  .165775418282D-06 -.173904241844D+00 -.242143869400D-07
     .974770851896D+00  .269656250000D+03 -.166159613512D+00 -.814676791701D-08
    -.378230040514D-09  .100000000000D+01  .161500000000D+04  .000000000000D+00
     .240000000000D+01  .000000000000D+00 -.977888703346D-08  .860000000000D+02
     .439206000000D+06  .400000000000D+01
17 10 12 24  4  0  0.0  .180314294994D-03  .795807864051D-12  .000000000000D+00
     .760000000000D+02 -.200625000000D+02  .433482341994D-08 -.130086692928D+01
    -.112690031528D-05  .585617381148D-02  .117663294077D-04  .515369589615D+04
     .446400000000D+06  .206753611565D-06  .868500308913D+00 -.912696123123D-07
     .960750672196D+00  .155500000000D+03 -.249359817256D+01 -.775246577846D-08
     .333585323739D-09  .100000000000D+01  .161500000000D+04  .000000000000D+00
     .240000000000D+01  .000000000000D+00 -.102445483208D-07  .760000000000D+02
     .439206000000D+06  .400000000000D+01
18 10 12 24  4  0  0.0  .111985951662D-03  .216004991671D-11  .000000000000D+00
     .510000000000D+02 -.156875000000D+02  .529486340946D-08  .185706024773D-01
    -.774860382080D-06  .118285616627D-01  .882148742676D-05  .515374890709D+04
     .446400000000D+06  .186264514923D-08  .295512898501D+01  .199303030968D-06
     .935028615169D+00  .198468750000D+03 -.227946157547D+01 -.851464038323D-08
    -.578952687132D-09  .100000000000D+01  .161500000000D+04  .000000000000D+00
     .240000000000D+01  .000000000000D+00 -.107102096081D-07  .510000000000D+02
     .439206000000D+06  .400000000000D+01
20 10 12 24  4  0  0.0  .489782541990D-04 -.113686837722D-12  .000000000000D+00
     .770000000000D+02 -.219687500000D+02  .525164732362D-08  .394226192623D+00
    -.131689012051D-05  .454733450897D-02  .804848968983D-05  .515376240730D+04
     .446400000000D+06 -.763684511185D-07  .290121020166D+01 -.931322574615D-08
     .935036620257D+00  .211593750000D+03  .125886435977D+01 -.842463663422D-08
    -.542165440510D-09  .100000000000D+01  .161500000000D+04  .000000000000D+00
     .240000000000D+01  .000000000000D+00 -.791624188423D-08  .770000000000D+02
     .439206000000D+06  .400000000000D+01
21 10 12 24  4  0  0.0 -.111574307084D-03 -.272848410532D-11  .000000000000D+00
     .840000000000D+02  .242500000000D+02  .567666502731D-08  .126306877902D+01
     .141747295856D-05  .170543804998D-01  .590458512306D-05  .515359186935D+04
     .446400000000D+06 -.199303030968D-06  .189971261180D+01  .147148966789D-06
     .931541485139D+00  .254375000000D+03 -.242447704881D+01 -.877393689826D-08
     .917895376884D-10  .100000000000D+01  .161500000000D+04  .000000000000D+00
     .240000000000D+01  .000000000000D+00 -.116415321827D-07  .840000000000D+02
     .439206000000D+06  .400000000000D+01
22 10 12 24  4  0  0.0  .156446825713D-03 -.682121026330D-12  .000000000000D+00
     .102000000000D+03 -.178125000000D+02  .530129224867D-08 -.851318568675D+00
    -.854954123497D-06  .541088276077D-02  .879541039467D-05  .515371559715D+04
     .446400000000D+06 -.149011611938D-07  .295959106216D+01  .100582838058D-06
     .932723553668D+00  .195781250000D+03 -.193507950339D+01 -.842642242289D-08
    -.570738059245D-09  .100000000000D+01  .161500000000D+04  .000000000000D+00
     .485000000000D+01  .000000000000D+00 -.176951289177D-07  .102000000000D+03
     .439206000000D+06  .400000000000D+01
23 10 12 24  4  0  0.0  .336358789355D-03 -.216004991671D-11  .000000000000D+00
     .210000000000D+02  .100812500000D+03  .419267464173D-08 -.257093342186D+01
     .526383519173D-05  .693432416301D-02  .107027590275D-04  .515361413765D+04
     .446400000000D+06 -.102445483208D-06 -.228986257045D+01 -.353902578354D-07
     .966186798244D+00  .181031250000D+03  .313266231114D+01 -.778603860547D-08
     .112147528538D-09  .100000000000D+01  .161500000000D+04  .000000000000D+00
     .240000000000D+01  .000000000000D+00 -.200234353542D-07  .210000000000D+02
     .439206000000D+06  .400000000000D+01
25 10 12 24  4  0  0.0 -.596190802753D-04 -.227373675443D-11  .000000000000D+00
     .110000000000D+03 -.141250000000D+03  .461662087222D-08 -.503040132795D+00
    -.729784369469D-05  .485848053358D-03  .564008951187D-05  .515373047066D+04
     .446400000000D+06  .335276126862D-07 -.219581415796D+00  .149011611938D-07
     .962395584599D+00  .269562500000D+03  .171250344601D+01 -.831606068302D-08
    -.381801617856D-09  .100000000000D+01  .161500000000D+04  .100000000000D+01
     .340000000000D+01  .000000000000D+00  .465661287308D-08  .110000000000D+03
     .439206000000D+06  .400000000000D+01
